STARLINK-1601           
1 46120U 20057D   20253.50001157 -.00082015  00000-0 -89761-3 0  9990
2 46120  52.9994 332.7468 0001494  60.0576  50.2930 15.62788903  4123
STARLINK-1602           
1 46121U 20057E   20253.50001157 -.00003335  00000-0 -26401-4 0  9992
2 46121  52.9983 332.4109 0001183  51.3929 222.4922 15.66238051  4123
STARLINK-1604           
1 46122U 20057F   20253.50001157 -.00000912  00000-0 -40913-5 0  9996
2 46122  53.0001 332.7406 0004136 289.7546 183.9161 15.62720674  4122
STARLINK-1605           
1 46123U 20057G   20253.25001157 -.00082821  00000-0 -90449-3 0  9995
2 46123  53.0005 333.9521 0007584 273.5870 237.7477 15.62804366  1776
STARLINK-1614           
1 46124U 20057H   20253.50001157 -.00005628  00000-0 -55556-4 0  9995
2 46124  52.9998 332.7340 0004367 282.2291 193.8210 15.62769879  4120
STARLINK-1618           
1 46125U 20057J   20253.50001157 -.00061039  00000-0 -66425-3 0  9990
2 46125  52.9996 332.7532 0001438  47.9620  54.6650 15.62811039  4128
STARLINK-1619           
1 46126U 20057K   20253.50001157  .00000423  00000-0  10455-4 0  9992
2 46126  52.9992 332.7477 0001287  55.4023  50.9941 15.62765476  4121
STARLINK-1621           
1 46127U 20057L   20253.25001157  .00014287  00000-0  15471-3 0  9990
2 46127  52.9996 333.9445 0001998 319.8577 192.9744 15.63874994  1542
